start=new Date('2022-06-23T00:00:00.000Z').valueOf();
sats=[{"PERIOD":"95.592","INCLINATION":"53.0560","ECCENTRICITY":"0.00013040","FILE":"3499789","CLASSIFICATION_TYPE":"U","LAUNCH_DATE":"2020-08-07","ARG_OF_PERICENTER":"82.3189","RCS_SIZE":"LARGE","OBJECT_NAME":"STARLINK-1543","CENTER_NAME":"EARTH","MEAN_MOTION":"15.06394432","BSTAR":"0.00012216000000","RA_OF_ASC_NODE":"84.8252","ELEMENT_SET_NO":"999","REF_FRAME":"TEME","MEAN_ANOMALY":"277.7948","APOAPSIS":"548.134","MEAN_MOTION_DOT":"0.00001538","MEAN_ELEMENT_THEORY":"SGP4","PERIAPSIS":"546.328","COUNTRY_CODE":"US","EPOCH":"2022-06-22T11:48:41.389344","TLE_LINE1":"1 46053U 20055AC  22173.49214571  .00001538  00000-0  12216-3 0  9990","TLE_LINE2":"2 46053  53.0560  84.8252 0001304  82.3189 277.7948 15.06394432104621","GP_ID":"206617508","EPHEMERIS_TYPE":"0","TIME_SYSTEM":"UTC","MEAN_MOTION_DDOT":"0.0000000000000","NORAD_CAT_ID":"46053","OBJECT_TYPE":"PAYLOAD","SITE":"AFETR","REV_AT_EPOCH":"10462","DECAY_DATE":null,"SEMIMAJOR_AXIS":"6925.366","OBJECT_ID":"2020-055AC"},{"RA_OF_ASC_NODE":"86.2863","BSTAR":"0.00001457100000","REF_FRAME":"TEME","ELEMENT_SET_NO":"999","MEAN_ANOMALY":"288.9798","MEAN_ELEMENT_THEORY":"SGP4","COUNTRY_CODE":"US","PERIAPSIS":"546.328","EPOCH":"2022-06-22T04:01:36.689664","APOAPSIS":"548.136","MEAN_MOTION_DOT":"-0.00000064","ECCENTRICITY":"0.00013050","CLASSIFICATION_TYPE":"U","FILE":"3499789","PERIOD":"95.593","INCLINATION":"53.0564","OBJECT_NAME":"STARLINK-1548","RCS_SIZE":"LARGE","CENTER_NAME":"EARTH","MEAN_MOTION":"15.06393915","LAUNCH_DATE":"2020-08-07","ARG_OF_PERICENTER":"71.1332","SITE":"AFETR","DECAY_DATE":null,"SEMIMAJOR_AXIS":"6925.367","OBJECT_ID":"2020-055AD","REV_AT_EPOCH":"10457","GP_ID":"206617745","EPHEMERIS_TYPE":"0","TIME_SYSTEM":"UTC","TLE_LINE1":"1 46054U 20055AD  22173.16778576 -.00000064  00000-0  14571-4 0  9996","TLE_LINE2":"2 46054  53.0564  86.2863 0001305  71.1332 288.9798 15.06393915104573","NORAD_CAT_ID":"46054","OBJECT_TYPE":"PAYLOAD","MEAN_MOTION_DDOT":"0.0000000000000"},{"REV_AT_EPOCH":"10466","DECAY_DATE":null,"SEMIMAJOR_AXIS":"6925.363","OBJECT_ID":"2020-055AE","SITE":"AFETR","MEAN_MOTION_DDOT":"0.0000000000000","NORAD_CAT_ID":"46055","OBJECT_TYPE":"PAYLOAD","TLE_LINE1":"1 46055U 20055AE  22173.75016200  .00001128  00000-0  94650-4 0  9998","TLE_LINE2":"2 46055  53.0542  83.6722 0001562  69.9293 290.1864 15.06395138104669","GP_ID":"206645888","EPHEMERIS_TYPE":"0","TIME_SYSTEM":"UTC","APOAPSIS":"548.310","MEAN_MOTION_DOT":"0.00001128","MEAN_ELEMENT_THEORY":"SGP4","EPOCH":"2022-06-22T18:00:13.996800","COUNTRY_CODE":"US","PERIAPSIS":"546.147","BSTAR":"0.00009465000000","RA_OF_ASC_NODE":"83.6722","MEAN_ANOMALY":"290.1864","REF_FRAME":"TEME","ELEMENT_SET_NO":"999","LAUNCH_DATE":"2020-08-07","ARG_OF_PERICENTER":"69.9293","OBJECT_NAME":"STARLINK-1554","RCS_SIZE":"LARGE","MEAN_MOTION":"15.06395138","CENTER_NAME":"EARTH","INCLINATION":"53.0542","PERIOD":"95.592","ECCENTRICITY":"0.00015620","CLASSIFICATION_TYPE":"U","FILE":"3500001"},{"MEAN_MOTION_DOT":"-0.00000516","APOAPSIS":"548.559","COUNTRY_CODE":"US","PERIAPSIS":"545.884","EPOCH":"2022-06-22T04:10:51.924576","MEAN_ELEMENT_THEORY":"SGP4","ELEMENT_SET_NO":"999","REF_FRAME":"TEME","MEAN_ANOMALY":"309.8168","BSTAR":"-0.00001574500000","RA_OF_ASC_NODE":"86.2458","ARG_OF_PERICENTER":"50.2991","LAUNCH_DATE":"2020-08-07","MEAN_MOTION":"15.06397347","CENTER_NAME":"EARTH","RCS_SIZE":"LARGE","OBJECT_NAME":"STARLINK-1561","PERIOD":"95.592","INCLINATION":"53.0565","FILE":"3499864","CLASSIFICATION_TYPE":"U","ECCENTRICITY":"0.00019310","REV_AT_EPOCH":"10404","OBJECT_ID":"2020-055AF","SEMIMAJOR_AXIS":"6925.357","DECAY_DATE":null,"SITE":"AFETR","MEAN_MOTION_DDOT":"0.0000000000000","OBJECT_TYPE":"PAYLOAD","NORAD_CAT_ID":"46056","TLE_LINE2":"2 46056  53.0565  86.2458 0001931  50.2991 309.8168 15.06397347104049","TLE_LINE1":"1 46056U 20055AF  22173.17421209 -.00000516  00000-0 -15745-4 0  9994","TIME_SYSTEM":"UTC","EPHEMERIS_TYPE":"0","GP_ID":"206623591"},{"MEAN_MOTION_DDOT":"0.0000000000000","NORAD_CAT_ID":"46058","OBJECT_TYPE":"PAYLOAD","TLE_LINE1":"1 46058U 20055AH  22173.45160768 -.00000417  00000-0 -91269-5 0  9993","TLE_LINE2":"2 46058  53.0548  84.9996 0001538  76.5517 283.5643 15.06390072104080","EPHEMERIS_TYPE":"0","GP_ID":"206593748","TIME_SYSTEM":"UTC","REV_AT_EPOCH":"10408","DECAY_DATE":null,"SEMIMAJOR_AXIS":"6925.379","OBJECT_ID":"2020-055AH","SITE":"AFETR","LAUNCH_DATE":"2020-08-07","ARG_OF_PERICENTER":"76.5517","OBJECT_NAME":"STARLINK-1564","RCS_SIZE":"LARGE","CENTER_NAME":"EARTH","MEAN_MOTION":"15.06390072","INCLINATION":"53.0548","PERIOD":"95.593","ECCENTRICITY":"0.00015380","FILE":"3499637","CLASSIFICATION_TYPE":"U","APOAPSIS":"548.309","MEAN_MOTION_DOT":"-0.00000417","MEAN_ELEMENT_THEORY":"SGP4","EPOCH":"2022-06-22T10:50:18.903552","PERIAPSIS":"546.179","COUNTRY_CODE":"US","RA_OF_ASC_NODE":"84.9996","BSTAR":"-0.00000912690000","MEAN_ANOMALY":"283.5643","REF_FRAME":"TEME","ELEMENT_SET_NO":"999"},{"MEAN_ANOMALY":"286.7181","ELEMENT_SET_NO":"999","REF_FRAME":"TEME","RA_OF_ASC_NODE":"83.1918","BSTAR":"-0.00000999550000","EPOCH":"2022-06-22T20:34:10.144704","COUNTRY_CODE":"US","PERIAPSIS":"546.177","MEAN_ELEMENT_THEORY":"SGP4","MEAN_MOTION_DOT":"-0.00000430","APOAPSIS":"548.334","CLASSIFICATION_TYPE":"U","FILE":"3500001","ECCENTRICITY":"0.00015570","INCLINATION":"53.0558","PERIOD":"95.593","MEAN_MOTION":"15.06386314","CENTER_NAME":"EARTH","OBJECT_NAME":"STARLINK-1570","RCS_SIZE":"LARGE","ARG_OF_PERICENTER":"73.3979","LAUNCH_DATE":"2020-08-07","SITE":"AFETR","OBJECT_ID":"2020-055AJ","DECAY_DATE":null,"SEMIMAJOR_AXIS":"6925.391","REV_AT_EPOCH":"10463","TIME_SYSTEM":"UTC","GP_ID":"206647140","EPHEMERIS_TYPE":"0","TLE_LINE2":"2 46059  53.0558  83.1918 0001557  73.3979 286.7181 15.06386314104632","TLE_LINE1":"1 46059U 20055AJ  22173.85706186 -.00000430  00000-0 -99955-5 0  9993","OBJECT_TYPE":"PAYLOAD","NORAD_CAT_ID":"46059","MEAN_MOTION_DDOT":"0.0000000000000"},{"OBJECT_TYPE":"PAYLOAD","NORAD_CAT_ID":"46060","MEAN_MOTION_DDOT":"0.0000000000000","TIME_SYSTEM":"UTC","GP_ID":"206616507","EPHEMERIS_TYPE":"0","TLE_LINE2":"2 46060  53.0565  86.4832 0001545  66.4835 293.6316 15.06396822104535","TLE_LINE1":"1 46060U 20055AK  22173.12355337  .00000617  00000-0  60330-4 0  9992","OBJECT_ID":"2020-055AK","DECAY_DATE":null,"SEMIMAJOR_AXIS":"6925.358","REV_AT_EPOCH":"10453","SITE":"AFETR","CENTER_NAME":"EARTH","MEAN_MOTION":"15.06396822","RCS_SIZE":"LARGE","OBJECT_NAME":"STARLINK-1572","ARG_OF_PERICENTER":"66.4835","LAUNCH_DATE":"2020-08-07","FILE":"3499789","CLASSIFICATION_TYPE":"U","ECCENTRICITY":"0.00015450","INCLINATION":"53.0565","PERIOD":"95.592","EPOCH":"2022-06-22T02:57:55.011168","COUNTRY_CODE":"US","PERIAPSIS":"546.153","MEAN_ELEMENT_THEORY":"SGP4","MEAN_MOTION_DOT":"0.00000617","APOAPSIS":"548.293","MEAN_ANOMALY":"293.6316","ELEMENT_SET_NO":"999","REF_FRAME":"TEME","BSTAR":"0.00006033000000","RA_OF_ASC_NODE":"86.4832"},{"MEAN_MOTION_DDOT":"0.0000000000000","NORAD_CAT_ID":"46061","OBJECT_TYPE":"PAYLOAD","TLE_LINE1":"1 46061U 20055AL  22173.91235564 -.00001206  00000-0 -62087-4 0  9997","TLE_LINE2":"2 46061  53.0562  82.9483 0001759  61.1263 298.9902 15.06387974104683","GP_ID":"206645638","EPHEMERIS_TYPE":"0","TIME_SYSTEM":"UTC","REV_AT_EPOCH":"10468","SEMIMAJOR_AXIS":"6925.385","DECAY_DATE":null,"OBJECT_ID":"2020-055AL","SITE":"AFETR","LAUNCH_DATE":"2020-08-07","ARG_OF_PERICENTER":"61.1263","OBJECT_NAME":"STARLINK-1573","RCS_SIZE":"LARGE","MEAN_MOTION":"15.06387974","CENTER_NAME":"EARTH","PERIOD":"95.593","INCLINATION":"53.0562","ECCENTRICITY":"0.00017590","CLASSIFICATION_TYPE":"U","FILE":"3500001","APOAPSIS":"548.469","MEAN_MOTION_DOT":"-0.00001206","MEAN_ELEMENT_THEORY":"SGP4","COUNTRY_CODE":"US","PERIAPSIS":"546.032","EPOCH":"2022-06-22T21:53:47.527296","BSTAR":"-0.00006208700000","RA_OF_ASC_NODE":"82.9483","REF_FRAME":"TEME","ELEMENT_SET_NO":"999","MEAN_ANOMALY":"298.9902"},{"MEAN_MOTION_DDOT":"0.0000000000000","OBJECT_TYPE":"PAYLOAD","NORAD_CAT_ID":"46062","TLE_LINE2":"2 46062  53.0551  84.8725 0002041  46.6013 313.5146 15.06407635104588","TLE_LINE1":"1 46062U 20055AM  22173.48108988 -.00005003  00000-0 -31710-3 0  9996","TIME_SYSTEM":"UTC","EPHEMERIS_TYPE":"0","GP_ID":"206617509","REV_AT_EPOCH":"10458","OBJECT_ID":"2020-055AM","DECAY_DATE":null,"SEMIMAJOR_AXIS":"6925.325","SITE":"AFETR","ARG_OF_PERICENTER":"46.6013","LAUNCH_DATE":"2020-08-07","MEAN_MOTION":"15.06407635","CENTER_NAME":"EARTH","RCS_SIZE":"LARGE","OBJECT_NAME":"STARLINK-1574","PERIOD":"95.592","INCLINATION":"53.0551","CLASSIFICATION_TYPE":"U","FILE":"3499789","ECCENTRICITY":"0.00020410","MEAN_MOTION_DOT":"-0.00005003","APOAPSIS":"548.604","COUNTRY_CODE":"US","PERIAPSIS":"545.777","EPOCH":"2022-06-22T11:32:46.165632","MEAN_ELEMENT_THEORY":"SGP4","ELEMENT_SET_NO":"999","REF_FRAME":"TEME","MEAN_ANOMALY":"313.5146","BSTAR":"-0.00031710000000","RA_OF_ASC_NODE":"84.8725"},{"ELEMENT_SET_NO":"999","REF_FRAME":"TEME","MEAN_ANOMALY":"285.0939","BSTAR":"-0.00005400900000","RA_OF_ASC_NODE":"83.1164","PERIAPSIS":"546.102","COUNTRY_CODE":"US","EPOCH":"2022-06-22T21:00:42.704928","MEAN_ELEMENT_THEORY":"SGP4","MEAN_MOTION_DOT":"-0.00001086","APOAPSIS":"548.390","CLASSIFICATION_TYPE":"U","FILE":"3500001","ECCENTRICITY":"0.00016520","PERIOD":"95.593","INCLINATION":"53.0564","CENTER_NAME":"EARTH","MEAN_MOTION":"15.06389364","RCS_SIZE":"LARGE","OBJECT_NAME":"STARLINK-1577","ARG_OF_PERICENTER":"75.0232","LAUNCH_DATE":"2020-08-07","SITE":"AFETR","OBJECT_ID":"2020-055AN","SEMIMAJOR_AXIS":"6925.381","DECAY_DATE":null,"REV_AT_EPOCH":"10467","TIME_SYSTEM":"UTC","GP_ID":"206646640","EPHEMERIS_TYPE":"0","TLE_LINE2":"2 46063  53.0564  83.1164 0001652  75.0232 285.0939 15.06389364104679","TLE_LINE1":"1 46063U 20055AN  22173.87549427 -.00001086  00000-0 -54009-4 0  9991","OBJECT_TYPE":"PAYLOAD","NORAD_CAT_ID":"46063","MEAN_MOTION_DDOT":"0.0000000000000"}];
